{
  "type": "FeatureCollection",
  "academyStatus": "Synthetic, openly reusable Academy training data",
  "features": [
    {
      "type": "Feature",
      "properties": {
        "site_id": "SYN_UAV_SITE",
        "status": "synthetic"
      },
      "geometry": {
        "type": "Polygon",
        "coordinates": [
          [
            [
              24.0,
              58.63984702
            ],
            [
              24.00013776,
              58.63984702
            ],
            [
              24.00013776,
              58.63991885
            ],
            [
              24.0,
              58.63991885
            ],
            [
              24.0,
              58.63984702
            ]
          ]
        ]
      }
    }
  ]
}
